{"type": "FeatureCollection", "features": [ {"type": "Feature", "properties": {"norad_id": 34819, "name": "COSMOS 2251 DEB", "group": "cosmos-2251-debris", "lat": 64.6724266528527, "lon": -179.58501147390578, "alt_km": 684.5304938122135, "timestamp": "2025-12-12T11:38:31.807898+00:00", "meta": {"OBJECT_NAME": "COSMOS 2251 DEB", "OBJECT_ID": "1993-036ABJ", "EPOCH": "2025-12-12T03:39:15.255360", "MEAN_MOTION": 14.63952127, "ECCENTRICITY": 0.0015673, "INCLINATION": 74.0187, "RA_OF_ASC_NODE": 143.7886, "ARG_OF_PERICENTER": 237.8131, "MEAN_ANOMALY": 238.9847, "EPHEMERIS_TYPE": 0, "CLASSIFICATION_TYPE": "U", "NORAD_CAT_ID": 34819, "ELEMENT_SET_NO": 999, "REV_AT_EPOCH": 88220, "BSTAR": 0.002313, "MEAN_MOTION_DOT": 0.00012122, "MEAN_MOTION_DDOT": 0}, "tle": {"line1": "1 34819U 93036ABJ 25346.15225990  .00012122  00000+0  23130-2 0  9997", "line2": "2 34819  74.0187 143.7886 0015673 237.8131 238.9847 14.63952127882209"}}, "geometry": {"type": "Point", "coordinates": [-179.58501147390578, 64.6724266528527]}}, {"type": "Feature", "properties": {"norad_id": 34823, "name": "COSMOS 2251 DEB", "group": "cosmos-2251-debris", "lat": 52.72291541414232, "lon": -99.31881488830606, "alt_km": 653.9931243162055, "timestamp": "2025-12-12T11:38:31.807908+00:00", "meta": {"OBJECT_NAME": "COSMOS 2251 DEB", "OBJECT_ID": "1993-036ABN", "EPOCH": "2025-12-10T14:30:29.359008", "MEAN_MOTION": 14.54904355, "ECCENTRICITY": 0.0154887, "INCLINATION": 74.0414, "RA_OF_ASC_NODE": 106.322, "ARG_OF_PERICENTER": 191.6219, "MEAN_ANOMALY": 168.1356, "EPHEMERIS_TYPE": 0, "CLASSIFICATION_TYPE": "U", "NORAD_CAT_ID": 34823, "ELEMENT_SET_NO": 999, "REV_AT_EPOCH": 88350, "BSTAR": 0.0013618, "MEAN_MOTION_DOT": 6.85e-05, "MEAN_MOTION_DDOT": 0}, "tle": {"line1": "1 34823U 93036ABN 25344.60450647  .00006850  00000+0  13618-2 0  9990", "line2": "2 34823  74.0414 106.3220 0154887 191.6219 168.1356 14.54904355883502"}}, "geometry": {"type": "Point", "coordinates": [-99.31881488830606, 52.72291541414232]}}, {"type": "Feature", "properties": {"norad_id": 34845, "name": "COSMOS 2251 DEB", "group": "cosmos-2251-debris", "lat": 69.92956468123855, "lon": -82.81174347794352, "alt_km": 746.1417126490533, "timestamp": "2025-12-12T11:38:31.807918+00:00", "meta": {"OBJECT_NAME": "COSMOS 2251 DEB", "OBJECT_ID": "1993-036ABP", "EPOCH": "2025-12-09T20:04:05.418048", "MEAN_MOTION": 14.45850049, "ECCENTRICITY": 0.00222586, "INCLINATION": 74.0237, "RA_OF_ASC_NODE": 153.7694, "ARG_OF_PERICENTER": 315.2139, "MEAN_ANOMALY": 44.7222, "EPHEMERIS_TYPE": 0, "CLASSIFICATION_TYPE": "U", "NORAD_CAT_ID": 34845, "ELEMENT_SET_NO": 999, "REV_AT_EPOCH": 87424, "BSTAR": 0.00046671234, "MEAN_MOTION_DOT": 1.636e-05, "MEAN_MOTION_DDOT": 0}, "tle": {"line1": "1 34845U 93036ABP 25343.83617382  .00001636  00000+0  46671-3 0  9992", "line2": "2 34845  74.0237 153.7694 0022258 315.2139  44.7222 14.45850049874243"}}, "geometry": {"type": "Point", "coordinates": [-82.81174347794352, 69.92956468123855]}}, {"type": "Feature", "properties": {"norad_id": 34846, "name": "COSMOS 2251 DEB", "group": "cosmos-2251-debris", "lat": 38.45449561020157, "lon": -84.60404067266778, "alt_km": 725.6918538667023, "timestamp": "2025-12-12T11:38:31.807928+00:00", "meta": {"OBJECT_NAME": "COSMOS 2251 DEB", "OBJECT_ID": "1993-036ABQ", "EPOCH": "2025-12-11T22:11:05.594784", "MEAN_MOTION": 14.47207444, "ECCENTRICITY": 0.0026081, "INCLINATION": 74.0307, "RA_OF_ASC_NODE": 263.2998, "ARG_OF_PERICENTER": 329.815, "MEAN_ANOMALY": 30.1504, "EPHEMERIS_TYPE": 0, "CLASSIFICATION_TYPE": "U", "NORAD_CAT_ID": 34846, "ELEMENT_SET_NO": 999, "REV_AT_EPOCH": 87392, "BSTAR": 0.0014123, "MEAN_MOTION_DOT": 5.157e-05, "MEAN_MOTION_DDOT": 0}, "tle": {"line1": "1 34846U 93036ABQ 25345.92437031  .00005157  00000+0  14123-2 0  9994", "line2": "2 34846  74.0307 263.2998 0026081 329.8150  30.1504 14.47207444873921"}}, "geometry": {"type": "Point", "coordinates": [-84.60404067266778, 38.45449561020157]}}, {"type": "Feature", "properties": {"norad_id": 34852, "name": "COSMOS 2251 DEB", "group": "cosmos-2251-debris", "lat": 59.98759717005077, "lon": 53.72801677086856, "alt_km": 766.0047829798041, "timestamp": "2025-12-12T11:38:31.807938+00:00", "meta": {"OBJECT_NAME": "COSMOS 2251 DEB", "OBJECT_ID": "1993-036ABW", "EPOCH": "2025-12-11T03:21:40.223232", "MEAN_MOTION": 14.37002528, "ECCENTRICITY": 0.00160835, "INCLINATION": 74.033, "RA_OF_ASC_NODE": 265.9134, "ARG_OF_PERICENTER": 9.31, "MEAN_ANOMALY": 350.8348, "EPHEMERIS_TYPE": 0, "CLASSIFICATION_TYPE": "U", "NORAD_CAT_ID": 34852, "ELEMENT_SET_NO": 999, "REV_AT_EPOCH": 87511, "BSTAR": 0.00017988234, "MEAN_MOTION_DOT": 5.08e-06, "MEAN_MOTION_DDOT": 0}, "tle": {"line1": "1 34852U 93036ABW 25345.14004888  .00000508  00000+0  17988-3 0  9993", "line2": "2 34852  74.0330 265.9134 0016083   9.3100 350.8348 14.37002528875117"}}, "geometry": {"type": "Point", "coordinates": [53.72801677086856, 59.98759717005077]}}, {"type": "Feature", "properties": {"norad_id": 34854, "name": "COSMOS 2251 DEB", "group": "cosmos-2251-debris", "lat": -15.871801398173439, "lon": 154.4127141910249, "alt_km": 630.5748354819134, "timestamp": "2025-12-12T11:38:31.807948+00:00", "meta": {"OBJECT_NAME": "COSMOS 2251 DEB", "OBJECT_ID": "1993-036ABY", "EPOCH": "2025-12-10T04:25:53.682240", "MEAN_MOTION": 14.76585117, "ECCENTRICITY": 0.0066172, "INCLINATION": 74.0287, "RA_OF_ASC_NODE": 163.5908, "ARG_OF_PERICENTER": 275.7691, "MEAN_ANOMALY": 83.5942, "EPHEMERIS_TYPE": 0, "CLASSIFICATION_TYPE": "U", "NORAD_CAT_ID": 34854, "ELEMENT_SET_NO": 999, "REV_AT_EPOCH": 71844, "BSTAR": 0.00096088, "MEAN_MOTION_DOT": 6.925e-05, "MEAN_MOTION_DDOT": 0}, "tle": {"line1": "1 34854U 93036ABY 25344.18464910  .00006925  00000+0  96088-3 0  9991", "line2": "2 34854  74.0287 163.5908 0066172 275.7691  83.5942 14.76585117718445"}}, "geometry": {"type": "Point", "coordinates": [154.4127141910249, -15.871801398173439]}}, {"type": "Feature", "properties": {"norad_id": 34856, "name": "COSMOS 2251 DEB", "group": "cosmos-2251-debris", "lat": 28.369526177842587, "lon": 94.29137121414846, "alt_km": 568.9291463251029, "timestamp": "2025-12-12T11:38:31.807958+00:00", "meta": {"OBJECT_NAME": "COSMOS 2251 DEB", "OBJECT_ID": "1993-036ACA", "EPOCH": "2025-12-11T13:15:05.666688", "MEAN_MOTION": 15.05962388, "ECCENTRICITY": 0.00329642, "INCLINATION": 73.9966, "RA_OF_ASC_NODE": 87.2929, "ARG_OF_PERICENTER": 225.0346, "MEAN_ANOMALY": 148.7122, "EPHEMERIS_TYPE": 0, "CLASSIFICATION_TYPE": "U", "NORAD_CAT_ID": 34856, "ELEMENT_SET_NO": 999, "REV_AT_EPOCH": 89094, "BSTAR": 0.0030960777, "MEAN_MOTION_DOT": 0.00045898, "MEAN_MOTION_DDOT": 0}, "tle": {"line1": "1 34856U 93036ACA 25345.55214892  .00045898  00000+0  30961-2 0  9996", "line2": "2 34856  73.9966  87.2929 0032964 225.0346 148.7122 15.05962388890943"}}, "geometry": {"type": "Point", "coordinates": [94.29137121414846, 28.369526177842587]}}, {"type": "Feature", "properties": {"norad_id": 34857, "name": "COSMOS 2251 DEB", "group": "cosmos-2251-debris", "lat": 72.29707634196284, "lon": 171.21570679026328, "alt_km": 729.4845962545851, "timestamp": "2025-12-12T11:38:31.807967+00:00", "meta": {"OBJECT_NAME": "COSMOS 2251 DEB", "OBJECT_ID": "1993-036ACB", "EPOCH": "2025-12-10T10:09:42.100416", "MEAN_MOTION": 14.5885085, "ECCENTRICITY": 0.00659222, "INCLINATION": 74.0153, "RA_OF_ASC_NODE": 111.2471, "ARG_OF_PERICENTER": 236.0948, "MEAN_ANOMALY": 183.224, "EPHEMERIS_TYPE": 0, "CLASSIFICATION_TYPE": "U", "NORAD_CAT_ID": 34857, "ELEMENT_SET_NO": 999, "REV_AT_EPOCH": 87867, "BSTAR": 0.001891387, "MEAN_MOTION_DOT": 9.104e-05, "MEAN_MOTION_DDOT": 0}, "tle": {"line1": "1 34857U 93036ACB 25344.42340394  .00009104  00000+0  18914-2 0  9993", "line2": "2 34857  74.0153 111.2471 0065922 236.0948 183.2240 14.58850850878672"}}, "geometry": {"type": "Point", "coordinates": [171.21570679026328, 72.29707634196284]}}, {"type": "Feature", "properties": {"norad_id": 34859, "name": "COSMOS 2251 DEB", "group": "cosmos-2251-debris", "lat": -15.721998243214196, "lon": -24.434116228810588, "alt_km": 524.8136156368337, "timestamp": "2025-12-12T11:38:31.807978+00:00", "meta": {"OBJECT_NAME": "COSMOS 2251 DEB", "OBJECT_ID": "1993-036ACD", "EPOCH": "2025-12-12T00:52:56.324928", "MEAN_MOTION": 15.14557844, "ECCENTRICITY": 0.0002471, "INCLINATION": 74.0312, "RA_OF_ASC_NODE": 341.1213, "ARG_OF_PERICENTER": 336.6743, "MEAN_ANOMALY": 83.5787, "EPHEMERIS_TYPE": 0, "CLASSIFICATION_TYPE": "U", "NORAD_CAT_ID": 34859, "ELEMENT_SET_NO": 999, "REV_AT_EPOCH": 88348, "BSTAR": 0.0060515, "MEAN_MOTION_DOT": 0.0011338, "MEAN_MOTION_DDOT": 0}, "tle": {"line1": "1 34859U 93036ACD 25346.03676302  .00113380  00000+0  60515-2 0  9991", "line2": "2 34859  74.0312 341.1213 0002471 336.6743  83.5787 15.14557844883482"}}, "geometry": {"type": "Point", "coordinates": [-24.434116228810588, -15.721998243214196]}}, {"type": "Feature", "properties": {"norad_id": 34861, "name": "COSMOS 2251 DEB", "group": "cosmos-2251-debris", "lat": -72.00683923439064, "lon": -66.69320888536615, "alt_km": 570.107710078747, "timestamp": "2025-12-12T11:38:31.807988+00:00", "meta": {"OBJECT_NAME": "COSMOS 2251 DEB", "OBJECT_ID": "1993-036ACF", "EPOCH": "2025-12-12T04:13:42.225024", "MEAN_MOTION": 15.02524782, "ECCENTRICITY": 0.0007112, "INCLINATION": 74.0182, "RA_OF_ASC_NODE": 52.0021, "ARG_OF_PERICENTER": 49.2863, "MEAN_ANOMALY": 342.1745, "EPHEMERIS_TYPE": 0, "CLASSIFICATION_TYPE": "U", "NORAD_CAT_ID": 34861, "ELEMENT_SET_NO": 999, "REV_AT_EPOCH": 88084, "BSTAR": 0.0032009, "MEAN_MOTION_DOT": 0.00042788, "MEAN_MOTION_DDOT": 0}, "tle": {"line1": "1 34861U 93036ACF 25346.17618316  .00042788  00000+0  32009-2 0  9990", "line2": "2 34861  74.0182  52.0021 0007112  49.2863 342.1745 15.02524782880849"}}, "geometry": {"type": "Point", "coordinates": [-66.69320888536615, -72.00683923439064]}}]}